[
  {
    "OBJECT_NAME": "GOES 1 (SMS-C)",
    "OBJECT_ID": "1975-100A",
    "EPOCH": "2025-06-28T10:17:00.792960",
    "MEAN_MOTION": 1.00246339,
    "ECCENTRICITY": 0.0002779,
    "INCLINATION": 5.5088,
    "RA_OF_ASC_NODE": 281.8378,
    "ARG_OF_PERICENTER": 321.016,
    "MEAN_ANOMALY": 103.1422,
    "EPHEMERIS_TYPE": 0,
    "CLASSIFICATION_TYPE": "U",
    "NORAD_CAT_ID": 8366,
    "ELEMENT_SET_NO": 999,
    "REV_AT_EPOCH": 18152,
    "BSTAR": 0,
    "MEAN_MOTION_DOT": -2.06e-06,
    "MEAN_MOTION_DDOT": 0
  },
  {
    "OBJECT_NAME": "GOES 2",
    "OBJECT_ID": "1977-048A",
    "EPOCH": "2025-06-28T12:47:40.607232",
    "MEAN_MOTION": 0.99401698,
    "ECCENTRICITY": 0.0011332,
    "INCLINATION": 7.2607,
    "RA_OF_ASC_NODE": 296.2975,
    "ARG_OF_PERICENTER": 50.2612,
    "MEAN_ANOMALY": 300.8791,
    "EPHEMERIS_TYPE": 0,
    "CLASSIFICATION_TYPE": "U",
    "NORAD_CAT_ID": 10061,
    "ELEMENT_SET_NO": 999,
    "REV_AT_EPOCH": 4275,
    "BSTAR": 0,
    "MEAN_MOTION_DOT": -1.28e-06,
    "MEAN_MOTION_DDOT": 0
  },
  {
    "OBJECT_NAME": "GOES 3",
    "OBJECT_ID": "1978-062A",
    "EPOCH": "2025-06-28T09:50:02.590080",
    "MEAN_MOTION": 0.99357867,
    "ECCENTRICITY": 8.93e-05,
    "INCLINATION": 7.7014,
    "RA_OF_ASC_NODE": 301.8281,
    "ARG_OF_PERICENTER": 223.6345,
    "MEAN_ANOMALY": 153.4498,
    "EPHEMERIS_TYPE": 0,
    "CLASSIFICATION_TYPE": "U",
    "NORAD_CAT_ID": 10953,
    "ELEMENT_SET_NO": 999,
    "REV_AT_EPOCH": 12502,
    "BSTAR": 0,
    "MEAN_MOTION_DOT": 1.6e-07,
    "MEAN_MOTION_DDOT": 0
  },
  {
    "OBJECT_NAME": "GOES 4",
    "OBJECT_ID": "1980-074A",
    "EPOCH": "2025-06-28T11:33:06.618240",
    "MEAN_MOTION": 0.99234488,
    "ECCENTRICITY": 0.0032393,
    "INCLINATION": 8.7546,
    "RA_OF_ASC_NODE": 305.5939,
    "ARG_OF_PERICENTER": 102.7004,
    "MEAN_ANOMALY": 202.6811,
    "EPHEMERIS_TYPE": 0,
    "CLASSIFICATION_TYPE": "U",
    "NORAD_CAT_ID": 11964,
    "ELEMENT_SET_NO": 999,
    "REV_AT_EPOCH": 12392,
    "BSTAR": 0,
    "MEAN_MOTION_DOT": -2.63e-06,
    "MEAN_MOTION_DDOT": 0
  },
  {
    "OBJECT_NAME": "GOES 5",
    "OBJECT_ID": "1981-049A",
    "EPOCH": "2025-06-28T10:34:47.877024",
    "MEAN_MOTION": 1.00294857,
    "ECCENTRICITY": 0.00017,
    "INCLINATION": 9.9928,
    "RA_OF_ASC_NODE": 317.9882,
    "ARG_OF_PERICENTER": 288.3392,
    "MEAN_ANOMALY": 120.0889,
    "EPHEMERIS_TYPE": 0,
    "CLASSIFICATION_TYPE": "U",
    "NORAD_CAT_ID": 12472,
    "ELEMENT_SET_NO": 999,
    "REV_AT_EPOCH": 11930,
    "BSTAR": 0,
    "MEAN_MOTION_DOT": -2.83e-06,
    "MEAN_MOTION_DDOT": 0
  },
  {
    "OBJECT_NAME": "GOES 6",
    "OBJECT_ID": "1983-041A",
    "EPOCH": "2025-06-28T10:29:19.140576",
    "MEAN_MOTION": 1.002658,
    "ECCENTRICITY": 0.0002571,
    "INCLINATION": 10.7555,
    "RA_OF_ASC_NODE": 323.5289,
    "ARG_OF_PERICENTER": 203.8536,
    "MEAN_ANOMALY": 191.7114,
    "EPHEMERIS_TYPE": 0,
    "CLASSIFICATION_TYPE": "U",
    "NORAD_CAT_ID": 14050,
    "ELEMENT_SET_NO": 999,
    "REV_AT_EPOCH": 21247,
    "BSTAR": 0,
    "MEAN_MOTION_DOT": -2.66e-06,
    "MEAN_MOTION_DDOT": 0
  },
  {
    "OBJECT_NAME": "GOES 7",
    "OBJECT_ID": "1987-022A",
    "EPOCH": "2025-06-28T10:30:55.446336",
    "MEAN_MOTION": 0.9990281,
    "ECCENTRICITY": 0.0002609,
    "INCLINATION": 13.2484,
    "RA_OF_ASC_NODE": 340.1309,
    "ARG_OF_PERICENTER": 76.3394,
    "MEAN_ANOMALY": 218.7458,
    "EPHEMERIS_TYPE": 0,
    "CLASSIFICATION_TYPE": "U",
    "NORAD_CAT_ID": 17561,
    "ELEMENT_SET_NO": 999,
    "REV_AT_EPOCH": 12342,
    "BSTAR": 0,
    "MEAN_MOTION_DOT": 6.9e-07,
    "MEAN_MOTION_DDOT": 0
  },
  {
    "OBJECT_NAME": "GOES 8",
    "OBJECT_ID": "1994-022A",
    "EPOCH": "2025-06-28T10:00:33.743808",
    "MEAN_MOTION": 0.98906359,
    "ECCENTRICITY": 0.0005586,
    "INCLINATION": 14.1255,
    "RA_OF_ASC_NODE": 16.3262,
    "ARG_OF_PERICENTER": 65.2832,
    "MEAN_ANOMALY": 298.8596,
    "EPHEMERIS_TYPE": 0,
    "CLASSIFICATION_TYPE": "U",
    "NORAD_CAT_ID": 23051,
    "ELEMENT_SET_NO": 999,
    "REV_AT_EPOCH": 12063,
    "BSTAR": 0,
    "MEAN_MOTION_DOT": -2.33e-06,
    "MEAN_MOTION_DDOT": 0
  },
  {
    "OBJECT_NAME": "GOES 9",
    "OBJECT_ID": "1995-025A",
    "EPOCH": "2025-06-28T11:38:17.436192",
    "MEAN_MOTION": 0.98802828,
    "ECCENTRICITY": 0.0006454,
    "INCLINATION": 13.6456,
    "RA_OF_ASC_NODE": 17.0844,
    "ARG_OF_PERICENTER": 147.5052,
    "MEAN_ANOMALY": 86.2351,
    "EPHEMERIS_TYPE": 0,
    "CLASSIFICATION_TYPE": "U",
    "NORAD_CAT_ID": 23581,
    "ELEMENT_SET_NO": 999,
    "REV_AT_EPOCH": 10926,
    "BSTAR": 0,
    "MEAN_MOTION_DOT": -2.79e-06,
    "MEAN_MOTION_DDOT": 0
  },
  {
    "OBJECT_NAME": "GOES 10",
    "OBJECT_ID": "1997-019A",
    "EPOCH": "2025-06-28T03:26:38.713632",
    "MEAN_MOTION": 0.99122747,
    "ECCENTRICITY": 0.0029523,
    "INCLINATION": 12.7073,
    "RA_OF_ASC_NODE": 23.6043,
    "ARG_OF_PERICENTER": 227.18,
    "MEAN_ANOMALY": 123.4118,
    "EPHEMERIS_TYPE": 0,
    "CLASSIFICATION_TYPE": "U",
    "NORAD_CAT_ID": 24786,
    "ELEMENT_SET_NO": 999,
    "REV_AT_EPOCH": 10255,
    "BSTAR": 0,
    "MEAN_MOTION_DOT": 3.9e-07,
    "MEAN_MOTION_DDOT": 0
  },
  {
    "OBJECT_NAME": "GOES 11",
    "OBJECT_ID": "2000-022A",
    "EPOCH": "2025-06-28T11:41:21.952032",
    "MEAN_MOTION": 0.99042813,
    "ECCENTRICITY": 0.0001905,
    "INCLINATION": 11.0507,
    "RA_OF_ASC_NODE": 49.8148,
    "ARG_OF_PERICENTER": 217.2377,
    "MEAN_ANOMALY": 131.2906,
    "EPHEMERIS_TYPE": 0,
    "CLASSIFICATION_TYPE": "U",
    "NORAD_CAT_ID": 26352,
    "ELEMENT_SET_NO": 999,
    "REV_AT_EPOCH": 4896,
    "BSTAR": 0,
    "MEAN_MOTION_DOT": -2.13e-06,
    "MEAN_MOTION_DDOT": 0
  },
  {
    "OBJECT_NAME": "GOES 12",
    "OBJECT_ID": "2001-031A",
    "EPOCH": "2025-06-28T11:15:44.102880",
    "MEAN_MOTION": 0.99135351,
    "ECCENTRICITY": 0.0004986,
    "INCLINATION": 11.5378,
    "RA_OF_ASC_NODE": 40.1975,
    "ARG_OF_PERICENTER": 308.9795,
    "MEAN_ANOMALY": 333.7528,
    "EPHEMERIS_TYPE": 0,
    "CLASSIFICATION_TYPE": "U",
    "NORAD_CAT_ID": 26871,
    "ELEMENT_SET_NO": 999,
    "REV_AT_EPOCH": 8725,
    "BSTAR": 0,
    "MEAN_MOTION_DOT": 5e-07,
    "MEAN_MOTION_DDOT": 0
  },
  {
    "OBJECT_NAME": "EWS-G1 (GOES 13)",
    "OBJECT_ID": "2006-018A",
    "EPOCH": "2025-06-28T11:02:21.624000",
    "MEAN_MOTION": 0.98791965,
    "ECCENTRICITY": 0.006038,
    "INCLINATION": 3.6123,
    "RA_OF_ASC_NODE": 80.7709,
    "ARG_OF_PERICENTER": 266.8325,
    "MEAN_ANOMALY": 234.3534,
    "EPHEMERIS_TYPE": 0,
    "CLASSIFICATION_TYPE": "U",
    "NORAD_CAT_ID": 29155,
    "ELEMENT_SET_NO": 999,
    "REV_AT_EPOCH": 3975,
    "BSTAR": 0,
    "MEAN_MOTION_DOT": -2.56e-06,
    "MEAN_MOTION_DDOT": 0
  },
  {
    "OBJECT_NAME": "GOES 14",
    "OBJECT_ID": "2009-033A",
    "EPOCH": "2025-06-28T13:08:34.187424",
    "MEAN_MOTION": 1.00273702,
    "ECCENTRICITY": 0.000235,
    "INCLINATION": 0.7659,
    "RA_OF_ASC_NODE": 87.8341,
    "ARG_OF_PERICENTER": 68.3475,
    "MEAN_ANOMALY": 209.6301,
    "EPHEMERIS_TYPE": 0,
    "CLASSIFICATION_TYPE": "U",
    "NORAD_CAT_ID": 35491,
    "ELEMENT_SET_NO": 999,
    "REV_AT_EPOCH": 304,
    "BSTAR": 0,
    "MEAN_MOTION_DOT": -7.4e-07,
    "MEAN_MOTION_DDOT": 0
  },
  {
    "OBJECT_NAME": "EWS-G2 (GOES 15)",
    "OBJECT_ID": "2010-008A",
    "EPOCH": "2025-06-28T20:40:26.909184",
    "MEAN_MOTION": 1.00271422,
    "ECCENTRICITY": 0.0002739,
    "INCLINATION": 0.3651,
    "RA_OF_ASC_NODE": 85.3313,
    "ARG_OF_PERICENTER": 113.0431,
    "MEAN_ANOMALY": 90.1856,
    "EPHEMERIS_TYPE": 0,
    "CLASSIFICATION_TYPE": "U",
    "NORAD_CAT_ID": 36411,
    "ELEMENT_SET_NO": 999,
    "REV_AT_EPOCH": 5608,
    "BSTAR": 0,
    "MEAN_MOTION_DOT": 3.4e-07,
    "MEAN_MOTION_DDOT": 0
  },
  {
    "OBJECT_NAME": "GOES 16",
    "OBJECT_ID": "2016-071A",
    "EPOCH": "2025-06-28T13:09:34.238880",
    "MEAN_MOTION": 1.00271772,
    "ECCENTRICITY": 7.28e-05,
    "INCLINATION": 0.0525,
    "RA_OF_ASC_NODE": 234.6404,
    "ARG_OF_PERICENTER": 277.2106,
    "MEAN_ANOMALY": 217.6895,
    "EPHEMERIS_TYPE": 0,
    "CLASSIFICATION_TYPE": "U",
    "NORAD_CAT_ID": 41866,
    "ELEMENT_SET_NO": 999,
    "REV_AT_EPOCH": 3155,
    "BSTAR": 0,
    "MEAN_MOTION_DOT": -9.6e-07,
    "MEAN_MOTION_DDOT": 0
  },
  {
    "OBJECT_NAME": "GOES 17",
    "OBJECT_ID": "2018-022A",
    "EPOCH": "2025-06-28T16:37:01.352928",
    "MEAN_MOTION": 1.00421895,
    "ECCENTRICITY": 9.09e-05,
    "INCLINATION": 0.0475,
    "RA_OF_ASC_NODE": 120.6132,
    "ARG_OF_PERICENTER": 96.7031,
    "MEAN_ANOMALY": 212.5307,
    "EPHEMERIS_TYPE": 0,
    "CLASSIFICATION_TYPE": "U",
    "NORAD_CAT_ID": 43226,
    "ELEMENT_SET_NO": 999,
    "REV_AT_EPOCH": 2689,
    "BSTAR": 0,
    "MEAN_MOTION_DOT": -1.69e-06,
    "MEAN_MOTION_DDOT": 0
  },
  {
    "OBJECT_NAME": "GOES 18",
    "OBJECT_ID": "2022-021A",
    "EPOCH": "2025-06-28T18:08:42.421056",
    "MEAN_MOTION": 1.00272247,
    "ECCENTRICITY": 3.3e-05,
    "INCLINATION": 0.016,
    "RA_OF_ASC_NODE": 127.0012,
    "ARG_OF_PERICENTER": 65.0671,
    "MEAN_ANOMALY": 220.1835,
    "EPHEMERIS_TYPE": 0,
    "CLASSIFICATION_TYPE": "U",
    "NORAD_CAT_ID": 51850,
    "ELEMENT_SET_NO": 999,
    "REV_AT_EPOCH": 1226,
    "BSTAR": 0,
    "MEAN_MOTION_DOT": 9.1e-07,
    "MEAN_MOTION_DDOT": 0
  },
  {
    "OBJECT_NAME": "GOES 19",
    "OBJECT_ID": "2024-119A",
    "EPOCH": "2025-06-28T20:09:11.937600",
    "MEAN_MOTION": 1.00270106,
    "ECCENTRICITY": 3.02e-05,
    "INCLINATION": 0.0326,
    "RA_OF_ASC_NODE": 143.5319,
    "ARG_OF_PERICENTER": 71.6448,
    "MEAN_ANOMALY": 289.0759,
    "EPHEMERIS_TYPE": 0,
    "CLASSIFICATION_TYPE": "U",
    "NORAD_CAT_ID": 60133,
    "ELEMENT_SET_NO": 999,
    "REV_AT_EPOCH": 376,
    "BSTAR": 0,
    "MEAN_MOTION_DOT": -2.53e-06,
    "MEAN_MOTION_DDOT": 0
  }
]